{
    "links": {
        "self": "http://www.neowsapp.com/rest/v1/neo/3789098?api_key=iIulBulltgU6a56xZRHN4H3l9WmuAYTsLGpBGhQ2"
    },
    "id": "3789098",
    "neo_reference_id": "3789098",
    "name": "(2017 VJ1)",
    "designation": "2017 VJ1",
    "nasa_jpl_url": "http://ssd.jpl.nasa.gov/sbdb.cgi?sstr=3789098",
    "absolute_magnitude_h": 21.6,
    "estimated_diameter": {
        "kilometers": {
            "estimated_diameter_min": 0.1272198785,
            "estimated_diameter_max": 0.2844722965
        },
        "meters": {
            "estimated_diameter_min": 127.2198785394,
            "estimated_diameter_max": 284.4722965033
        },
        "miles": {
            "estimated_diameter_min": 0.0790507431,
            "estimated_diameter_max": 0.1767628354
        },
        "feet": {
            "estimated_diameter_min": 417.3880663071,
            "estimated_diameter_max": 933.3080892598
        }
    },
    "is_potentially_hazardous_asteroid": true,
    "close_approach_data": [
        {
            "close_approach_date": "2017-12-12",
            "close_approach_date_full": "2017-Dec-12 05:34",
            "epoch_date_close_approach": 1513056840000,
            "relative_velocity": {
                "kilometers_per_second": "16.9672383728",
                "kilometers_per_hour": "61082.0581420944",
                "miles_per_hour": "37954.0155161253"
            },
            "miss_distance": {
                "astronomical": "0.269815251",
                "lunar": "104.958132639",
                "kilometers": "40363786.84311537",
                "miles": "25080894.127797306"
            },
            "orbiting_body": "Earth"
        },
        {
            "close_approach_date": "2018-04-27",
            "close_approach_date_full": "2018-Apr-27 01:27",
            "epoch_date_close_approach": 1524792420000,
            "relative_velocity": {
                "kilometers_per_second": "20.6699947772",
                "kilometers_per_hour": "74411.9811980017",
                "miles_per_hour": "46236.7113171695"
            },
            "miss_distance": {
                "astronomical": "0.0810288476",
                "lunar": "31.5202217164",
                "kilometers": "12121743.009514612",
                "miles": "7532101.8379091656"
            },
            "orbiting_body": "Mars"
        }
    ],
    "orbital_data": {
        "orbit_id": "5",
        "orbit_determination_date": "2017-12-07 06:22:22",
        "first_observation_date": "2017-11-09",
        "last_observation_date": "2017-12-07",
        "data_arc_in_days": 28,
        "observations_used": 35,
        "orbit_uncertainty": "8",
        "minimum_orbit_intersection": ".0458589",
        "jupiter_tisserand_invariant": "3.873",
        "epoch_osculation": "2458069.5",
        "eccentricity": ".6021040962891282",
        "semi_major_axis": "1.704574455838653",
        "inclination": "26.12046323335893",
        "ascending_node_longitude": "63.39656430917206",
        "orbital_period": "812.8724241652062",
        "perihelion_distance": ".6782431935483885",
        "perihelion_argument": "72.44867545392462",
        "aphelion_distance": "2.730905718128918",
        "perihelion_time": "2458139.216609424057",
        "mean_anomaly": "329.1243316336689",
        "mean_motion": ".4428739237521908",
        "equinox": "J2000",
        "orbit_class": {
            "orbit_class_type": "APO",
            "orbit_class_description": "Near-Earth asteroid orbits which cross the Earth’s orbit similar to that of 1862 Apollo",
            "orbit_class_range": "a (semi-major axis) > 1.0 AU; q (perihelion) < 1.017 AU"
        }
    },
    "is_sentry_object": false
}